{
  "type": "FeatureCollection",
  "features": [
    {
      "type": "Feature",
      "properties": {
        "norad_id": 58701,
        "name": "TIANMU-1 16",
        "group": "weather",
        "lat": 9.771674249404356,
        "lon": 175.22473879665546,
        "alt_km": 495.1221348338504,
        "timestamp": "2025-12-21T16:47:54.372281+00:00",
        "meta_object_name": "TIANMU-1 16",
        "meta_object_id": "2024-004B",
        "meta_epoch": "2025-12-21T12:01:46.404192",
        "meta_mean_motion": 15.24540654,
        "meta_eccentricity": 0.0004339,
        "meta_inclination": 97.456,
        "meta_ra_of_asc_node": 176.3194,
        "meta_arg_of_pericenter": 256.2793,
        "meta_mean_anomaly": 103.7962,
        "meta_ephemeris_type": 0,
        "meta_classification_type": "U",
        "meta_norad_cat_id": 58701,
        "meta_element_set_no": 999,
        "meta_rev_at_epoch": 10868,
        "meta_bstar": 0.00022428,
        "meta_mean_motion_dot": 5.449e-05,
        "meta_mean_motion_ddot": 0,
        "tle_line1": "1 58701U 24004B   25355.50123153  .00005449  00000+0  22428-3 0  9993",
        "tle_line2": "2 58701  97.4560 176.3194 0004339 256.2793 103.7962 15.24540654108685"
      },
      "geometry": {
        "type": "Point",
        "coordinates": [
          175.22473879665546,
          9.771674249404356
        ]
      }
    },
    {
      "type": "Feature",
      "properties": {
        "norad_id": 58702,
        "name": "TIANMU-1 17",
        "group": "weather",
        "lat": 80.53381998047686,
        "lon": 48.729782590136786,
        "alt_km": 486.9133998932939,
        "timestamp": "2025-12-21T16:47:54.372292+00:00",
        "meta_object_name": "TIANMU-1 17",
        "meta_object_id": "2024-004C",
        "meta_epoch": "2025-12-21T13:13:44.536224",
        "meta_mean_motion": 15.24584401,
        "meta_eccentricity": 0.000351,
        "meta_inclination": 97.4596,
        "meta_ra_of_asc_node": 176.7837,
        "meta_arg_of_pericenter": 257.5171,
        "meta_mean_anomaly": 102.5674,
        "meta_ephemeris_type": 0,
        "meta_classification_type": "U",
        "meta_norad_cat_id": 58702,
        "meta_element_set_no": 999,
        "meta_rev_at_epoch": 10868,
        "meta_bstar": 0.00021629,
        "meta_mean_motion_dot": 5.259e-05,
        "meta_mean_motion_ddot": 0,
        "tle_line1": "1 58702U 24004C   25355.55120991  .00005259  00000+0  21629-3 0  9997",
        "tle_line2": "2 58702  97.4596 176.7837 0003510 257.5171 102.5674 15.24584401108682"
      },
      "geometry": {
        "type": "Point",
        "coordinates": [
          48.729782590136786,
          80.53381998047686
        ]
      }
    },
    {
      "type": "Feature",
      "properties": {
        "norad_id": 58703,
        "name": "TIANMU-1 18",
        "group": "weather",
        "lat": -6.9325612194669715,
        "lon": -3.784120337089474,
        "alt_km": 495.2806952863275,
        "timestamp": "2025-12-21T16:47:54.372306+00:00",
        "meta_object_name": "TIANMU-1 18",
        "meta_object_id": "2024-004D",
        "meta_epoch": "2025-12-21T12:49:50.150208",
        "meta_mean_motion": 15.2456894,
        "meta_eccentricity": 0.0002862,
        "meta_inclination": 97.4613,
        "meta_ra_of_asc_node": 176.9643,
        "meta_arg_of_pericenter": 255.1905,
        "meta_mean_anomaly": 104.9016,
        "meta_ephemeris_type": 0,
        "meta_classification_type": "U",
        "meta_norad_cat_id": 58703,
        "meta_element_set_no": 999,
        "meta_rev_at_epoch": 10868,
        "meta_bstar": 0.00021911,
        "meta_mean_motion_dot": 5.325e-05,
        "meta_mean_motion_ddot": 0,
        "tle_line1": "1 58703U 24004D   25355.53460822  .00005325  00000+0  21911-3 0  9994",
        "tle_line2": "2 58703  97.4613 176.9643 0002862 255.1905 104.9016 15.24568940108684"
      },
      "geometry": {
        "type": "Point",
        "coordinates": [
          -3.784120337089474,
          -6.9325612194669715
        ]
      }
    },
    {
      "type": "Feature",
      "properties": {
        "norad_id": 58990,
        "name": "INSAT-3DS",
        "group": "weather",
        "lat": -0.006676326774333528,
        "lon": 64.59714734651132,
        "alt_km": 35790.114068153875,
        "timestamp": "2025-12-21T16:47:54.372318+00:00",
        "meta_object_name": "INSAT-3DS",
        "meta_object_id": "2024-033A",
        "meta_epoch": "2025-12-21T11:52:32.848032",
        "meta_mean_motion": 1.00272048,
        "meta_eccentricity": 0.0001102,
        "meta_inclination": 0.0546,
        "meta_ra_of_asc_node": 102.5963,
        "meta_arg_of_pericenter": 170.8016,
        "meta_mean_anomaly": 77.1592,
        "meta_ephemeris_type": 0,
        "meta_classification_type": "U",
        "meta_norad_cat_id": 58990,
        "meta_element_set_no": 999,
        "meta_rev_at_epoch": 4528,
        "meta_bstar": 0,
        "meta_mean_motion_dot": -1.34e-06,
        "meta_mean_motion_ddot": 0,
        "tle_line1": "1 58990U 24033A   25355.49482463 -.00000134  00000+0  00000+0 0  9990",
        "tle_line2": "2 58990   0.0546 102.5963 0001102 170.8016  77.1592  1.00272048 45285"
      },
      "geometry": {
        "type": "Point",
        "coordinates": [
          64.59714734651132,
          -0.006676326774333528
        ]
      }
    },
    {
      "type": "Feature",
      "properties": {
        "norad_id": 59051,
        "name": "METEOR-M2 4",
        "group": "weather",
        "lat": -46.26872811495088,
        "lon": -38.34507291304117,
        "alt_km": 819.4884401863856,
        "timestamp": "2025-12-21T16:47:54.372370+00:00",
        "meta_object_name": "METEOR-M2 4",
        "meta_object_id": "2024-039A",
        "meta_epoch": "2025-12-21T11:57:13.833792",
        "meta_mean_motion": 14.22402535,
        "meta_eccentricity": 0.0006581,
        "meta_inclination": 98.6779,
        "meta_ra_of_asc_node": 312.2701,
        "meta_arg_of_pericenter": 332.5822,
        "meta_mean_anomaly": 27.5008,
        "meta_ephemeris_type": 0,
        "meta_classification_type": "U",
        "meta_norad_cat_id": 59051,
        "meta_element_set_no": 999,
        "meta_rev_at_epoch": 9400,
        "meta_bstar": 2.5294e-05,
        "meta_mean_motion_dot": 1.3e-07,
        "meta_mean_motion_ddot": 0,
        "tle_line1": "1 59051U 24039A   25355.49807678  .00000013  00000+0  25294-4 0  9996",
        "tle_line2": "2 59051  98.6779 312.2701 0006581 332.5822  27.5008 14.22402535 94002"
      },
      "geometry": {
        "type": "Point",
        "coordinates": [
          -38.34507291304117,
          -46.26872811495088
        ]
      }
    },
    {
      "type": "Feature",
      "properties": {
        "norad_id": 60133,
        "name": "GOES 19",
        "group": "weather",
        "lat": -0.006393084118784079,
        "lon": -92.71178773841193,
        "alt_km": 35783.86874562458,
        "timestamp": "2025-12-21T16:47:54.372387+00:00",
        "meta_object_name": "GOES 19",
        "meta_object_id": "2024-119A",
        "meta_epoch": "2025-12-21T11:07:41.267712",
        "meta_mean_motion": 1.00271762,
        "meta_eccentricity": 9.18e-05,
        "meta_inclination": 0.0073,
        "meta_ra_of_asc_node": 94.1992,
        "meta_arg_of_pericenter": 227.8771,
        "meta_mean_anomaly": 219.9412,
        "meta_ephemeris_type": 0,
        "meta_classification_type": "U",
        "meta_norad_cat_id": 60133,
        "meta_element_set_no": 999,
        "meta_rev_at_epoch": 518,
        "meta_bstar": 0,
        "meta_mean_motion_dot": -2.26e-06,
        "meta_mean_motion_ddot": 0,
        "tle_line1": "1 60133U 24119A   25355.46367208 -.00000226  00000+0  00000+0 0  9995",
        "tle_line2": "2 60133   0.0073  94.1992 0000918 227.8771 219.9412  1.00271762  5189"
      },
      "geometry": {
        "type": "Point",
        "coordinates": [
          -92.71178773841193,
          -0.006393084118784079
        ]
      }
    },
    {
      "type": "Feature",
      "properties": {
        "norad_id": 65815,
        "name": "FENGYUN 3H",
        "group": "weather",
        "lat": 66.74382659226872,
        "lon": 135.86584782419033,
        "alt_km": 818.59587267187,
        "timestamp": "2025-12-21T16:47:54.372399+00:00",
        "meta_object_name": "FENGYUN 3H",
        "meta_object_id": "2025-219A",
        "meta_epoch": "2025-12-21T11:12:03.669696",
        "meta_mean_motion": 14.19906837,
        "meta_eccentricity": 7.52e-05,
        "meta_inclination": 98.6597,
        "meta_ra_of_asc_node": 294.868,
        "meta_arg_of_pericenter": 105.6599,
        "meta_mean_anomaly": 254.466,
        "meta_ephemeris_type": 0,
        "meta_classification_type": "U",
        "meta_norad_cat_id": 65815,
        "meta_element_set_no": 999,
        "meta_rev_at_epoch": 1216,
        "meta_bstar": 4.6113e-05,
        "meta_mean_motion_dot": 5.5e-07,
        "meta_mean_motion_ddot": 0,
        "tle_line1": "1 65815U 25219A   25355.46670914  .00000055  00000+0  46113-4 0  9999",
        "tle_line2": "2 65815  98.6597 294.8680 0000752 105.6599 254.4660 14.19906837 12162"
      },
      "geometry": {
        "type": "Point",
        "coordinates": [
          135.86584782419033,
          66.74382659226872
        ]
      }
    }
  ]
}